{
  "type": "FeatureCollection",
  "features": [
    {
      "type": "Feature",
      "properties": {
        "norad_id": 35885,
        "name": "COSMOS 2251 DEB",
        "group": "cosmos-2251-debris",
        "lat": -69.94030323749394,
        "lon": 169.90018264261693,
        "alt_km": 782.2299614068543,
        "timestamp": "2025-12-10T20:49:52.949475+00:00",
        "meta_object_name": "COSMOS 2251 DEB",
        "meta_object_id": "1993-036ATY",
        "meta_epoch": "2025-12-10T14:37:30.243648",
        "meta_mean_motion": 14.37513931,
        "meta_eccentricity": 0.00230757,
        "meta_inclination": 74.0281,
        "meta_ra_of_asc_node": 298.717,
        "meta_arg_of_pericenter": 19.6981,
        "meta_mean_anomaly": 340.5059,
        "meta_ephemeris_type": 0,
        "meta_classification_type": "U",
        "meta_norad_cat_id": 35885,
        "meta_element_set_no": 999,
        "meta_rev_at_epoch": 64985,
        "meta_bstar": 0.00053652197,
        "meta_mean_motion_dot": 1.586e-05,
        "meta_mean_motion_ddot": 0,
        "tle_line1": "1 35885U 93036ATY 25344.60937782  .00001586  00000+0  53652-3 0  9993",
        "tle_line2": "2 35885  74.0281 298.7170 0023075  19.6981 340.5059 14.37513931649853"
      },
      "geometry": {
        "type": "Point",
        "coordinates": [
          169.90018264261693,
          -69.94030323749394
        ]
      }
    },
    {
      "type": "Feature",
      "properties": {
        "norad_id": 35888,
        "name": "COSMOS 2251 DEB",
        "group": "cosmos-2251-debris",
        "lat": 65.60314993465275,
        "lon": 39.37180638077972,
        "alt_km": 675.5180163016284,
        "timestamp": "2025-12-10T20:49:52.949485+00:00",
        "meta_object_name": "COSMOS 2251 DEB",
        "meta_object_id": "1993-036AUB",
        "meta_epoch": "2025-12-10T07:20:01.808736",
        "meta_mean_motion": 14.58304904,
        "meta_eccentricity": 0.0048302,
        "meta_inclination": 74.0337,
        "meta_ra_of_asc_node": 1.3007,
        "meta_arg_of_pericenter": 134.1871,
        "meta_mean_anomaly": 226.3279,
        "meta_ephemeris_type": 0,
        "meta_classification_type": "U",
        "meta_norad_cat_id": 35888,
        "meta_element_set_no": 999,
        "meta_rev_at_epoch": 86238,
        "meta_bstar": 0.00054866,
        "meta_mean_motion_dot": 2.549e-05,
        "meta_mean_motion_ddot": 0,
        "tle_line1": "1 35888U 93036AUB 25344.30557649  .00002549  00000+0  54866-3 0  9991",
        "tle_line2": "2 35888  74.0337   1.3007 0048302 134.1871 226.3279 14.58304904862387"
      },
      "geometry": {
        "type": "Point",
        "coordinates": [
          39.37180638077972,
          65.60314993465275
        ]
      }
    },
    {
      "type": "Feature",
      "properties": {
        "norad_id": 35890,
        "name": "COSMOS 2251 DEB",
        "group": "cosmos-2251-debris",
        "lat": 56.05542463794046,
        "lon": 40.9376916580788,
        "alt_km": 708.161051934344,
        "timestamp": "2025-12-10T20:49:52.949495+00:00",
        "meta_object_name": "COSMOS 2251 DEB",
        "meta_object_id": "1993-036AUD",
        "meta_epoch": "2025-12-08T00:44:22.816032",
        "meta_mean_motion": 14.57358592,
        "meta_eccentricity": 0.00535586,
        "meta_inclination": 73.9367,
        "meta_ra_of_asc_node": 251.7044,
        "meta_arg_of_pericenter": 16.9796,
        "meta_mean_anomaly": 343.3143,
        "meta_ephemeris_type": 0,
        "meta_classification_type": "U",
        "meta_norad_cat_id": 35890,
        "meta_element_set_no": 999,
        "meta_rev_at_epoch": 65082,
        "meta_bstar": 0.0025122755,
        "meta_mean_motion_dot": 0.00011598,
        "meta_mean_motion_ddot": 0,
        "tle_line1": "1 35890U 93036AUD 25342.03081963  .00011598  00000+0  25123-2 0  9990",
        "tle_line2": "2 35890  73.9367 251.7044 0053558  16.9796 343.3143 14.57358592650820"
      },
      "geometry": {
        "type": "Point",
        "coordinates": [
          40.9376916580788,
          56.05542463794046
        ]
      }
    },
    {
      "type": "Feature",
      "properties": {
        "norad_id": 35891,
        "name": "COSMOS 2251 DEB",
        "group": "cosmos-2251-debris",
        "lat": -43.67719881791457,
        "lon": -66.19603956026711,
        "alt_km": 442.83757581316604,
        "timestamp": "2025-12-10T20:49:52.949505+00:00",
        "meta_object_name": "COSMOS 2251 DEB",
        "meta_object_id": "1993-036AUE",
        "meta_epoch": "2025-12-10T15:08:56.489568",
        "meta_mean_motion": 15.33032056,
        "meta_eccentricity": 0.00441726,
        "meta_inclination": 73.9885,
        "meta_ra_of_asc_node": 98.397,
        "meta_arg_of_pericenter": 228.9907,
        "meta_mean_anomaly": 130.7474,
        "meta_ephemeris_type": 0,
        "meta_classification_type": "U",
        "meta_norad_cat_id": 35891,
        "meta_element_set_no": 999,
        "meta_rev_at_epoch": 67188,
        "meta_bstar": 0.0020263415,
        "meta_mean_motion_dot": 0.00067253,
        "meta_mean_motion_ddot": 0,
        "tle_line1": "1 35891U 93036AUE 25344.63120937  .00067253  00000+0  20263-2 0  9993",
        "tle_line2": "2 35891  73.9885  98.3970 0044172 228.9907 130.7474 15.33032056671883"
      },
      "geometry": {
        "type": "Point",
        "coordinates": [
          -66.19603956026711,
          -43.67719881791457
        ]
      }
    },
    {
      "type": "Feature",
      "properties": {
        "norad_id": 35895,
        "name": "COSMOS 2251 DEB",
        "group": "cosmos-2251-debris",
        "lat": -13.169847526470628,
        "lon": -12.925673551854638,
        "alt_km": 923.0866567594549,
        "timestamp": "2025-12-10T20:49:52.949515+00:00",
        "meta_object_name": "COSMOS 2251 DEB",
        "meta_object_id": "1993-036AUJ",
        "meta_epoch": "2025-12-10T07:11:31.170912",
        "meta_mean_motion": 14.01506304,
        "meta_eccentricity": 0.0198752,
        "meta_inclination": 74.05,
        "meta_ra_of_asc_node": 351.8966,
        "meta_arg_of_pericenter": 90.7812,
        "meta_mean_anomaly": 271.61,
        "meta_ephemeris_type": 0,
        "meta_classification_type": "U",
        "meta_norad_cat_id": 35895,
        "meta_element_set_no": 999,
        "meta_rev_at_epoch": 58978,
        "meta_bstar": 0.001851,
        "meta_mean_motion_dot": 3.303e-05,
        "meta_mean_motion_ddot": 0,
        "tle_line1": "1 35895U 93036AUJ 25344.29966633  .00003303  00000+0  18510-2 0  9998",
        "tle_line2": "2 35895  74.0500 351.8966 0198752  90.7812 271.6100 14.01506304589783"
      },
      "geometry": {
        "type": "Point",
        "coordinates": [
          -12.925673551854638,
          -13.169847526470628
        ]
      }
    },
    {
      "type": "Feature",
      "properties": {
        "norad_id": 35898,
        "name": "COSMOS 2251 DEB",
        "group": "cosmos-2251-debris",
        "lat": -51.49512441731449,
        "lon": -79.91438594098024,
        "alt_km": 631.9378538362871,
        "timestamp": "2025-12-10T20:49:52.949525+00:00",
        "meta_object_name": "COSMOS 2251 DEB",
        "meta_object_id": "1993-036AUM",
        "meta_epoch": "2025-12-09T15:20:01.417920",
        "meta_mean_motion": 14.94623361,
        "meta_eccentricity": 0.0079232,
        "meta_inclination": 73.9921,
        "meta_ra_of_asc_node": 303.7215,
        "meta_arg_of_pericenter": 88.0623,
        "meta_mean_anomaly": 87.6524,
        "meta_ephemeris_type": 0,
        "meta_classification_type": "U",
        "meta_norad_cat_id": 35898,
        "meta_element_set_no": 999,
        "meta_rev_at_epoch": 66763,
        "meta_bstar": 0.00095523,
        "meta_mean_motion_dot": 0.00010991,
        "meta_mean_motion_ddot": 0,
        "tle_line1": "1 35898U 93036AUM 25343.63890530  .00010991  00000+0  95523-3 0  9991",
        "tle_line2": "2 35898  73.9921 303.7215 0079232  88.0623  87.6524 14.94623361667636"
      },
      "geometry": {
        "type": "Point",
        "coordinates": [
          -79.91438594098024,
          -51.49512441731449
        ]
      }
    },
    {
      "type": "Feature",
      "properties": {
        "norad_id": 35901,
        "name": "COSMOS 2251 DEB",
        "group": "cosmos-2251-debris",
        "lat": -45.058918541912895,
        "lon": -136.58063192845987,
        "alt_km": 554.9846789767835,
        "timestamp": "2025-12-10T20:49:52.949535+00:00",
        "meta_object_name": "COSMOS 2251 DEB",
        "meta_object_id": "1993-036AUQ",
        "meta_epoch": "2025-12-07T10:36:21.692736",
        "meta_mean_motion": 15.06319673,
        "meta_eccentricity": 0.00066034,
        "meta_inclination": 74.0121,
        "meta_ra_of_asc_node": 33.7639,
        "meta_arg_of_pericenter": 0.5644,
        "meta_mean_anomaly": 13.1472,
        "meta_ephemeris_type": 0,
        "meta_classification_type": "U",
        "meta_norad_cat_id": 35901,
        "meta_element_set_no": 999,
        "meta_rev_at_epoch": 86047,
        "meta_bstar": 0.0047775116,
        "meta_mean_motion_dot": 0.0007096,
        "meta_mean_motion_ddot": 0,
        "tle_line1": "1 35901U 93036AUQ 25341.44191774  .00070960  00000+0  47775-2 0  9994",
        "tle_line2": "2 35901  74.0121  33.7639 0006603   0.5644  13.1472 15.06319673860474"
      },
      "geometry": {
        "type": "Point",
        "coordinates": [
          -136.58063192845987,
          -45.058918541912895
        ]
      }
    }
  ]
}